{
  "type": "FeatureCollection",
  "features": [
    {
      "type": "Feature",
      "properties": {
        "norad_id": 67138,
        "name": "KUIPER-00183",
        "group": "last-30-days",
        "lat": 2.2572451885990845,
        "lon": -124.9937609578276,
        "alt_km": 457.0602516511899,
        "timestamp": "2025-12-26T22:28:04.501903+00:00",
        "meta_object_name": "KUIPER-00183",
        "meta_object_id": "2025-301F",
        "meta_epoch": "2025-12-26T18:34:23.767680",
        "meta_mean_motion": 15.34130983,
        "meta_eccentricity": 0.001122,
        "meta_inclination": 51.8616,
        "meta_ra_of_asc_node": 57.5624,
        "meta_arg_of_pericenter": 149.9887,
        "meta_mean_anomaly": 210.1743,
        "meta_ephemeris_type": 0,
        "meta_classification_type": "U",
        "meta_norad_cat_id": 67138,
        "meta_element_set_no": 999,
        "meta_rev_at_epoch": 269,
        "meta_bstar": 0.00098114,
        "meta_mean_motion_dot": 0.00032724,
        "meta_mean_motion_ddot": 0,
        "tle_line1": "1 67138U 25301F   25360.77388620  .00032724  00000+0  98114-3 0  9996",
        "tle_line2": "2 67138  51.8616  57.5624 0011220 149.9887 210.1743 15.34130983  2697"
      },
      "geometry": {
        "type": "Point",
        "coordinates": [
          -124.9937609578276,
          2.2572451885990845
        ]
      }
    },
    {
      "type": "Feature",
      "properties": {
        "norad_id": 67139,
        "name": "KUIPER-00184",
        "group": "last-30-days",
        "lat": -11.322495149870907,
        "lon": -114.20265579097715,
        "alt_km": 460.65586858265306,
        "timestamp": "2025-12-26T22:28:04.501914+00:00",
        "meta_object_name": "KUIPER-00184",
        "meta_object_id": "2025-301G",
        "meta_epoch": "2025-12-26T15:22:21.745344",
        "meta_mean_motion": 15.34443698,
        "meta_eccentricity": 0.000899,
        "meta_inclination": 51.8629,
        "meta_ra_of_asc_node": 58.1701,
        "meta_arg_of_pericenter": 144.075,
        "meta_mean_anomaly": 216.0841,
        "meta_ephemeris_type": 0,
        "meta_classification_type": "U",
        "meta_norad_cat_id": 67139,
        "meta_element_set_no": 999,
        "meta_rev_at_epoch": 278,
        "meta_bstar": 8.2317e-05,
        "meta_mean_motion_dot": 2.409e-05,
        "meta_mean_motion_ddot": 0,
        "tle_line1": "1 67139U 25301G   25360.64052946  .00002409  00000+0  82317-4 0  9998",
        "tle_line2": "2 67139  51.8629  58.1701 0008990 144.0750 216.0841 15.34443698  2784"
      },
      "geometry": {
        "type": "Point",
        "coordinates": [
          -114.20265579097715,
          -11.322495149870907
        ]
      }
    },
    {
      "type": "Feature",
      "properties": {
        "norad_id": 67140,
        "name": "KUIPER-00186",
        "group": "last-30-days",
        "lat": -26.042102475136424,
        "lon": -100.7209808520508,
        "alt_km": 463.22826887637075,
        "timestamp": "2025-12-26T22:28:04.501924+00:00",
        "meta_object_name": "KUIPER-00186",
        "meta_object_id": "2025-301H",
        "meta_epoch": "2025-12-26T18:24:57.394080",
        "meta_mean_motion": 15.35057816,
        "meta_eccentricity": 0.0007732,
        "meta_inclination": 51.8686,
        "meta_ra_of_asc_node": 57.5207,
        "meta_arg_of_pericenter": 133.1569,
        "meta_mean_anomaly": 227.0064,
        "meta_ephemeris_type": 0,
        "meta_classification_type": "U",
        "meta_norad_cat_id": 67140,
        "meta_element_set_no": 999,
        "meta_rev_at_epoch": 252,
        "meta_bstar": 0.00091971,
        "meta_mean_motion_dot": 0.0003154,
        "meta_mean_motion_ddot": 0,
        "tle_line1": "1 67140U 25301H   25360.76733095  .00031540  00000+0  91971-3 0  9997",
        "tle_line2": "2 67140  51.8686  57.5207 0007732 133.1569 227.0064 15.35057816  2528"
      },
      "geometry": {
        "type": "Point",
        "coordinates": [
          -100.7209808520508,
          -26.042102475136424
        ]
      }
    },
    {
      "type": "Feature",
      "properties": {
        "norad_id": 67141,
        "name": "KUIPER-00187",
        "group": "last-30-days",
        "lat": -45.29779714686853,
        "lon": -70.82730866524004,
        "alt_km": 464.53286791134906,
        "timestamp": "2025-12-26T22:28:04.501935+00:00",
        "meta_object_name": "KUIPER-00187",
        "meta_object_id": "2025-301J",
        "meta_epoch": "2025-12-26T15:09:39.644640",
        "meta_mean_motion": 15.35854825,
        "meta_eccentricity": 0.0004362,
        "meta_inclination": 51.8715,
        "meta_ra_of_asc_node": 58.1127,
        "meta_arg_of_pericenter": 117.8868,
        "meta_mean_anomaly": 242.2561,
        "meta_ephemeris_type": 0,
        "meta_classification_type": "U",
        "meta_norad_cat_id": 67141,
        "meta_element_set_no": 999,
        "meta_rev_at_epoch": 250,
        "meta_bstar": 0.00061789,
        "meta_mean_motion_dot": 0.00021573,
        "meta_mean_motion_ddot": 0,
        "tle_line1": "1 67141U 25301J   25360.63170885  .00021573  00000+0  61789-3 0  9995",
        "tle_line2": "2 67141  51.8715  58.1127 0004362 117.8868 242.2561 15.35854825  2501"
      },
      "geometry": {
        "type": "Point",
        "coordinates": [
          -70.82730866524004,
          -45.29779714686853
        ]
      }
    },
    {
      "type": "Feature",
      "properties": {
        "norad_id": 67142,
        "name": "KUIPER-00188",
        "group": "last-30-days",
        "lat": -23.309897517641414,
        "lon": -103.5027018270941,
        "alt_km": 462.6261821175849,
        "timestamp": "2025-12-26T22:28:04.501945+00:00",
        "meta_object_name": "KUIPER-00188",
        "meta_object_id": "2025-301K",
        "meta_epoch": "2025-12-26T18:25:54.545952",
        "meta_mean_motion": 15.34963811,
        "meta_eccentricity": 0.000739,
        "meta_inclination": 51.8696,
        "meta_ra_of_asc_node": 57.5251,
        "meta_arg_of_pericenter": 137.8145,
        "meta_mean_anomaly": 222.341,
        "meta_ephemeris_type": 0,
        "meta_classification_type": "U",
        "meta_norad_cat_id": 67142,
        "meta_element_set_no": 999,
        "meta_rev_at_epoch": 252,
        "meta_bstar": 0.00086556,
        "meta_mean_motion_dot": 0.0002956,
        "meta_mean_motion_ddot": 0,
        "tle_line1": "1 67142U 25301K   25360.76799243  .00029560  00000+0  86556-3 0  9998",
        "tle_line2": "2 67142  51.8696  57.5251 0007390 137.8145 222.3410 15.34963811  2524"
      },
      "geometry": {
        "type": "Point",
        "coordinates": [
          -103.5027018270941,
          -23.309897517641414
        ]
      }
    },
    {
      "type": "Feature",
      "properties": {
        "norad_id": 67143,
        "name": "KUIPER-00191",
        "group": "last-30-days",
        "lat": -29.774921098659604,
        "lon": -96.59489881551372,
        "alt_km": 463.51228073746006,
        "timestamp": "2025-12-26T22:28:04.501955+00:00",
        "meta_object_name": "KUIPER-00191",
        "meta_object_id": "2025-301L",
        "meta_epoch": "2025-12-26T18:23:36.698208",
        "meta_mean_motion": 15.35195716,
        "meta_eccentricity": 0.0006685,
        "meta_inclination": 51.8676,
        "meta_ra_of_asc_node": 57.5158,
        "meta_arg_of_pericenter": 134.41,
        "meta_mean_anomaly": 225.7433,
        "meta_ephemeris_type": 0,
        "meta_classification_type": "U",
        "meta_norad_cat_id": 67143,
        "meta_element_set_no": 999,
        "meta_rev_at_epoch": 255,
        "meta_bstar": 0.00095155,
        "meta_mean_motion_dot": 0.00032788,
        "meta_mean_motion_ddot": 0,
        "tle_line1": "1 67143U 25301L   25360.76639697  .00032788  00000+0  95155-3 0  9996",
        "tle_line2": "2 67143  51.8676  57.5158 0006685 134.4100 225.7433 15.35195716  2556"
      },
      "geometry": {
        "type": "Point",
        "coordinates": [
          -96.59489881551372,
          -29.774921098659604
        ]
      }
    },
    {
      "type": "Feature",
      "properties": {
        "norad_id": 67144,
        "name": "KUIPER-00196",
        "group": "last-30-days",
        "lat": -48.87646568903587,
        "lon": -59.27332217710256,
        "alt_km": 464.6278925728129,
        "timestamp": "2025-12-26T22:28:04.501965+00:00",
        "meta_object_name": "KUIPER-00196",
        "meta_object_id": "2025-301M",
        "meta_epoch": "2025-12-26T15:07:27.812928",
        "meta_mean_motion": 15.36065728,
        "meta_eccentricity": 0.0003949,
        "meta_inclination": 51.8732,
        "meta_ra_of_asc_node": 58.1001,
        "meta_arg_of_pericenter": 101.5114,
        "meta_mean_anomaly": 258.6316,
        "meta_ephemeris_type": 0,
        "meta_classification_type": "U",
        "meta_norad_cat_id": 67144,
        "meta_element_set_no": 999,
        "meta_rev_at_epoch": 250,
        "meta_bstar": 0.00080514,
        "meta_mean_motion_dot": 0.00028446,
        "meta_mean_motion_ddot": 0,
        "tle_line1": "1 67144U 25301M   25360.63018302  .00028446  00000+0  80514-3 0  9996",
        "tle_line2": "2 67144  51.8732  58.1001 0003949 101.5114 258.6316 15.36065728  2504"
      },
      "geometry": {
        "type": "Point",
        "coordinates": [
          -59.27332217710256,
          -48.87646568903587
        ]
      }
    }
  ]
}